[{"CCSDS_OMM_VERS":"2.0","COMMENT":"GENERATED VIA SPACE-TRACK.ORG API","CREATION_DATE":"2022-12-08T18:21:51","ORIGINATOR":"18 SPCS","OBJECT_NAME":"EXPRESS AT1","OBJECT_ID":"2014-010A","CENTER_NAME":"EARTH","REF_FRAME":"TEME","TIME_SYSTEM":"UTC","MEAN_ELEMENT_THEORY":"SGP4","EPOCH":"2022-12-08T15:17:29.818752","MEAN_MOTION":"1.00271604","ECCENTRICITY":"0.00004240","INCLINATION":"0.0228","RA_OF_ASC_NODE":"226.8927","ARG_OF_PERICENTER":"48.6557","MEAN_ANOMALY":"87.2068","EPHEMERIS_TYPE":"0","CLASSIFICATION_TYPE":"U","NORAD_CAT_ID":"39612","ELEMENT_SET_NO":"999","REV_AT_EPOCH":"3215","BSTAR":"0.00000000000000","MEAN_MOTION_DOT":"0.00000094","MEAN_MOTION_DDOT":"0.0000000000000","SEMIMAJOR_AXIS":"42164.783","PERIOD":"1436.099","APOAPSIS":"35788.435","PERIAPSIS":"35784.860","OBJECT_TYPE":"PAYLOAD","RCS_SIZE":"LARGE","COUNTRY_CODE":"CIS","LAUNCH_DATE":"2014-03-15","SITE":"TTMTR","DECAY_DATE":null,"FILE":"3684614","GP_ID":"219768832","TLE_LINE0":"0 EXPRESS AT1","TLE_LINE1":"1 39612U 14010A   22342.63715068  .00000094  00000-0  00000-0 0  9999","TLE_LINE2":"2 39612   0.0228 226.8927 0000424  48.6557  87.2068  1.00271604 32159"},{"CCSDS_OMM_VERS":"2.0","COMMENT":"GENERATED VIA SPACE-TRACK.ORG API","CREATION_DATE":"2022-12-08T18:21:51","ORIGINATOR":"18 SPCS","OBJECT_NAME":"TURKSAT 4A","OBJECT_ID":"2014-007A","CENTER_NAME":"EARTH","REF_FRAME":"TEME","TIME_SYSTEM":"UTC","MEAN_ELEMENT_THEORY":"SGP4","EPOCH":"2022-12-08T11:48:44.477280","MEAN_MOTION":"1.00275320","ECCENTRICITY":"0.00052530","INCLINATION":"0.0529","RA_OF_ASC_NODE":"268.5391","ARG_OF_PERICENTER":"345.8462","MEAN_ANOMALY":"42.0551","EPHEMERIS_TYPE":"0","CLASSIFICATION_TYPE":"U","NORAD_CAT_ID":"39522","ELEMENT_SET_NO":"999","REV_AT_EPOCH":"3208","BSTAR":"0.00000000000000","MEAN_MOTION_DOT":"0.00000161","MEAN_MOTION_DDOT":"0.0000000000000","SEMIMAJOR_AXIS":"42163.741","PERIOD":"1436.046","APOAPSIS":"35807.755","PERIAPSIS":"35763.457","OBJECT_TYPE":"PAYLOAD","RCS_SIZE":"LARGE","COUNTRY_CODE":"TURK","LAUNCH_DATE":"2014-02-14","SITE":"TTMTR","DECAY_DATE":null,"FILE":"3684614","GP_ID":"219768583","TLE_LINE0":"0 TURKSAT 4A","TLE_LINE1":"1 39522U 14007A   22342.49218145  .00000161  00000-0  00000-0 0  9998","TLE_LINE2":"2 39522   0.0529 268.5391 0005253 345.8462  42.0551  1.00275320 32080"},{"CCSDS_OMM_VERS":"2.0","COMMENT":"GENERATED VIA SPACE-TRACK.ORG API","CREATION_DATE":"2022-12-08T18:21:51","ORIGINATOR":"18 SPCS","OBJECT_NAME":"ATHENA-FIDUS","OBJECT_ID":"2014-006B","CENTER_NAME":"EARTH","REF_FRAME":"TEME","TIME_SYSTEM":"UTC","MEAN_ELEMENT_THEORY":"SGP4","EPOCH":"2022-12-08T11:47:29.166720","MEAN_MOTION":"1.00274871","ECCENTRICITY":"0.00016820","INCLINATION":"0.0184","RA_OF_ASC_NODE":"34.2696","ARG_OF_PERICENTER":"228.2240","MEAN_ANOMALY":"29.4251","EPHEMERIS_TYPE":"0","CLASSIFICATION_TYPE":"U","NORAD_CAT_ID":"39509","ELEMENT_SET_NO":"999","REV_AT_EPOCH":"3217","BSTAR":"0.00000000000000","MEAN_MOTION_DOT":"0.00000169","MEAN_MOTION_DDOT":"0.0000000000000","SEMIMAJOR_AXIS":"42163.867","PERIOD":"1436.053","APOAPSIS":"35792.824","PERIAPSIS":"35778.640","OBJECT_TYPE":"PAYLOAD","RCS_SIZE":"LARGE","COUNTRY_CODE":"FRIT","LAUNCH_DATE":"2014-02-06","SITE":"FRGUI","DECAY_DATE":null,"FILE":"3684614","GP_ID":"219769326","TLE_LINE0":"0 ATHENA-FIDUS","TLE_LINE1":"1 39509U 14006B   22342.49130980  .00000169  00000-0  00000-0 0  9990","TLE_LINE2":"2 39509   0.0184  34.2696 0001682 228.2240  29.4251  1.00274871 32174"},{"CCSDS_OMM_VERS":"2.0","COMMENT":"GENERATED VIA SPACE-TRACK.ORG API","CREATION_DATE":"2022-12-08T18:21:51","ORIGINATOR":"18 SPCS","OBJECT_NAME":"ABS 2","OBJECT_ID":"2014-006A","CENTER_NAME":"EARTH","REF_FRAME":"TEME","TIME_SYSTEM":"UTC","MEAN_ELEMENT_THEORY":"SGP4","EPOCH":"2022-12-08T13:05:43.049760","MEAN_MOTION":"1.00272298","ECCENTRICITY":"0.00035170","INCLINATION":"0.0253","RA_OF_ASC_NODE":"19.8552","ARG_OF_PERICENTER":"233.5485","MEAN_ANOMALY":"95.2187","EPHEMERIS_TYPE":"0","CLASSIFICATION_TYPE":"U","NORAD_CAT_ID":"39508","ELEMENT_SET_NO":"999","REV_AT_EPOCH":"3238","BSTAR":"0.00000000000000","MEAN_MOTION_DOT":"-0.00000071","MEAN_MOTION_DDOT":"0.0000000000000","SEMIMAJOR_AXIS":"42164.588","PERIOD":"1436.090","APOAPSIS":"35801.282","PERIAPSIS":"35771.624","OBJECT_TYPE":"PAYLOAD","RCS_SIZE":"MEDIUM","COUNTRY_CODE":"PRC","LAUNCH_DATE":"2014-02-06","SITE":"FRGUI","DECAY_DATE":null,"FILE":"3684614","GP_ID":"219769083","TLE_LINE0":"0 ABS 2","TLE_LINE1":"1 39508U 14006A   22342.54563715 -.00000071  00000-0  00000-0 0  9994","TLE_LINE2":"2 39508   0.0253  19.8552 0003517 233.5485  95.2187  1.00272298 32382"},{"CCSDS_OMM_VERS":"2.0","COMMENT":"GENERATED VIA SPACE-TRACK.ORG API","CREATION_DATE":"2022-12-08T18:21:51","ORIGINATOR":"18 SPCS","OBJECT_NAME":"TDRS 12","OBJECT_ID":"2014-004A","CENTER_NAME":"EARTH","REF_FRAME":"TEME","TIME_SYSTEM":"UTC","MEAN_ELEMENT_THEORY":"SGP4","EPOCH":"2022-12-08T11:24:53.576640","MEAN_MOTION":"1.00270919","ECCENTRICITY":"0.00022190","INCLINATION":"3.7282","RA_OF_ASC_NODE":"350.5811","ARG_OF_PERICENTER":"230.2236","MEAN_ANOMALY":"346.7890","EPHEMERIS_TYPE":"0","CLASSIFICATION_TYPE":"U","NORAD_CAT_ID":"39504","ELEMENT_SET_NO":"999","REV_AT_EPOCH":"3137","BSTAR":"0.00000000000000","MEAN_MOTION_DOT":"-0.00000255","MEAN_MOTION_DDOT":"0.0000000000000","SEMIMAJOR_AXIS":"42164.975","PERIOD":"1436.109","APOAPSIS":"35796.196","PERIAPSIS":"35777.483","OBJECT_TYPE":"PAYLOAD","RCS_SIZE":"LARGE","COUNTRY_CODE":"US","LAUNCH_DATE":"2014-01-24","SITE":"AFETR","DECAY_DATE":null,"FILE":"3684614","GP_ID":"219767582","TLE_LINE0":"0 TDRS 12","TLE_LINE1":"1 39504U 14004A   22342.47562010 -.00000255  00000-0  00000-0 0  9991","TLE_LINE2":"2 39504   3.7282 350.5811 0002219 230.2236 346.7890  1.00270919 31370"},{"CCSDS_OMM_VERS":"2.0","COMMENT":"GENERATED VIA SPACE-TRACK.ORG API","CREATION_DATE":"2022-12-08T18:21:51","ORIGINATOR":"18 SPCS","OBJECT_NAME":"THAICOM 6","OBJECT_ID":"2014-002A","CENTER_NAME":"EARTH","REF_FRAME":"TEME","TIME_SYSTEM":"UTC","MEAN_ELEMENT_THEORY":"SGP4","EPOCH":"2022-12-08T14:45:43.813152","MEAN_MOTION":"1.00273203","ECCENTRICITY":"0.00030240","INCLINATION":"0.0853","RA_OF_ASC_NODE":"110.0989","ARG_OF_PERICENTER":"130.1323","MEAN_ANOMALY":"137.0540","EPHEMERIS_TYPE":"0","CLASSIFICATION_TYPE":"U","NORAD_CAT_ID":"39500","ELEMENT_SET_NO":"999","REV_AT_EPOCH":"3255","BSTAR":"0.00000000000000","MEAN_MOTION_DOT":"-0.00000106","MEAN_MOTION_DDOT":"0.0000000000000","SEMIMAJOR_AXIS":"42164.334","PERIOD":"1436.077","APOAPSIS":"35798.950","PERIAPSIS":"35773.449","OBJECT_TYPE":"PAYLOAD","RCS_SIZE":"LARGE","COUNTRY_CODE":"THAI","LAUNCH_DATE":"2014-01-06","SITE":"AFETR","DECAY_DATE":null,"FILE":"3684614","GP_ID":"219768825","TLE_LINE0":"0 THAICOM 6","TLE_LINE1":"1 39500U 14002A   22342.61509043 -.00000106  00000-0  00000-0 0  9993","TLE_LINE2":"2 39500   0.0853 110.0989 0003024 130.1323 137.0540  1.00273203 32558"},{"CCSDS_OMM_VERS":"2.0","COMMENT":"GENERATED VIA SPACE-TRACK.ORG API","CREATION_DATE":"2022-12-08T18:21:51","ORIGINATOR":"18 SPCS","OBJECT_NAME":"GSAT 14","OBJECT_ID":"2014-001A","CENTER_NAME":"EARTH","REF_FRAME":"TEME","TIME_SYSTEM":"UTC","MEAN_ELEMENT_THEORY":"SGP4","EPOCH":"2022-12-08T13:33:44.670240","MEAN_MOTION":"1.00272407","ECCENTRICITY":"0.00071650","INCLINATION":"0.0219","RA_OF_ASC_NODE":"264.9655","ARG_OF_PERICENTER":"347.0023","MEAN_ANOMALY":"102.7644","EPHEMERIS_TYPE":"0","CLASSIFICATION_TYPE":"U","NORAD_CAT_ID":"39498","ELEMENT_SET_NO":"999","REV_AT_EPOCH":"3248","BSTAR":"0.00000000000000","MEAN_MOTION_DOT":"-0.00000062","MEAN_MOTION_DDOT":"0.0000000000000","SEMIMAJOR_AXIS":"42164.558","PERIOD":"1436.088","APOAPSIS":"35816.633","PERIAPSIS":"35756.212","OBJECT_TYPE":"PAYLOAD","RCS_SIZE":"LARGE","COUNTRY_CODE":"IND","LAUNCH_DATE":"2014-01-05","SITE":"SRI","DECAY_DATE":null,"FILE":"3684614","GP_ID":"219768582","TLE_LINE0":"0 GSAT 14","TLE_LINE1":"1 39498U 14001A   22342.56510035 -.00000062  00000-0  00000-0 0  9996","TLE_LINE2":"2 39498   0.0219 264.9655 0007165 347.0023 102.7644  1.00272407 32486"},{"CCSDS_OMM_VERS":"2.0","COMMENT":"GENERATED VIA SPACE-TRACK.ORG API","CREATION_DATE":"2022-12-08T18:21:51","ORIGINATOR":"18 SPCS","OBJECT_NAME":"EXPRESS AM-5","OBJECT_ID":"2013-077A","CENTER_NAME":"EARTH","REF_FRAME":"TEME","TIME_SYSTEM":"UTC","MEAN_ELEMENT_THEORY":"SGP4","EPOCH":"2022-12-08T14:46:18.742080","MEAN_MOTION":"1.00271017","ECCENTRICITY":"0.00010660","INCLINATION":"0.0200","RA_OF_ASC_NODE":"235.3083","ARG_OF_PERICENTER":"159.6454","MEAN_ANOMALY":"44.0166","EPHEMERIS_TYPE":"0","CLASSIFICATION_TYPE":"U","NORAD_CAT_ID":"39487","ELEMENT_SET_NO":"999","REV_AT_EPOCH":"3344","BSTAR":"0.00000000000000","MEAN_MOTION_DOT":"-0.00000265","MEAN_MOTION_DDOT":"0.0000000000000","SEMIMAJOR_AXIS":"42164.947","PERIOD":"1436.108","APOAPSIS":"35791.307","PERIAPSIS":"35782.317","OBJECT_TYPE":"PAYLOAD","RCS_SIZE":"LARGE","COUNTRY_CODE":"CIS","LAUNCH_DATE":"2013-12-26","SITE":"TTMTR","DECAY_DATE":null,"FILE":"3684614","GP_ID":"219768824","TLE_LINE0":"0 EXPRESS AM-5","TLE_LINE1":"1 39487U 13077A   22342.61549470 -.00000265  00000-0  00000-0 0  9992","TLE_LINE2":"2 39487   0.0200 235.3083 0001066 159.6454  44.0166  1.00271017 33440"}]